{"type": "FeatureCollection", "features": [{"type": "Feature", "properties": {"norad_id": 26766, "name": "INTELSAT 10 (IS-10)", "group": "intelsat", "lat": -2.695595477363424, "lon": 42.97854390669947, "alt_km": 36139.00041384717, "timestamp": "2025-12-27T15:27:10.810781+00:00", "meta": {"OBJECT_NAME": "INTELSAT 10 (IS-10)", "OBJECT_ID": "2001-019A", "EPOCH": "2025-12-27T04:51:38.509056", "MEAN_MOTION": 0.9907171, "ECCENTRICITY": 0.00080983, "INCLINATION": 8.662, "RA_OF_ASC_NODE": 61.0096, "ARG_OF_PERICENTER": 230.2441, "MEAN_ANOMALY": 314.0374, "EPHEMERIS_TYPE": 0, "CLASSIFICATION_TYPE": "U", "NORAD_CAT_ID": 26766, "ELEMENT_SET_NO": 999, "REV_AT_EPOCH": 4387, "BSTAR": 0, "MEAN_MOTION_DOT": 6.5e-07, "MEAN_MOTION_DDOT": 0}, "tle": {"line1": "1 26766U 01019A   25361.20252904  .00000065  00000+0  00000+0 0  9998", "line2": "2 26766   8.6620  61.0096 0008098 230.2441 314.0374  0.99071710 43872"}}, "geometry": {"type": "Point", "coordinates": [42.97854390669947, -2.695595477363424]}}, {"type": "Feature", "properties": {"norad_id": 26900, "name": "INTELSAT 902 (IS-902)", "group": "intelsat", "lat": -2.329879564588506, "lon": -82.17098804778469, "alt_km": 35769.46974274863, "timestamp": "2025-12-27T15:27:10.810806+00:00", "meta": {"OBJECT_NAME": "INTELSAT 902 (IS-902)", "OBJECT_ID": "2001-039A", "EPOCH": "2025-12-15T13:09:02.081664", "MEAN_MOTION": 1.0027087, "ECCENTRICITY": 0.00045028, "INCLINATION": 5.6536, "RA_OF_ASC_NODE": 74.0372, "ARG_OF_PERICENTER": 189.6359, "MEAN_ANOMALY": 327.9329, "EPHEMERIS_TYPE": 0, "CLASSIFICATION_TYPE": "U", "NORAD_CAT_ID": 26900, "ELEMENT_SET_NO": 999, "REV_AT_EPOCH": 8885, "BSTAR": 0, "MEAN_MOTION_DOT": -2.65e-06, "MEAN_MOTION_DDOT": 0}, "tle": {"line1": "1 26900U 01039A   25349.54794076 -.00000265  00000+0  00000+0 0  9997", "line2": "2 26900   5.6536  74.0372 0004502 189.6359 327.9329  1.00270870 88858"}}, "geometry": {"type": "Point", "coordinates": [-82.17098804778469, -2.329879564588506]}}, {"type": "Feature", "properties": {"norad_id": 27380, "name": "INTELSAT 904 (IS-904)", "group": "intelsat", "lat": -4.634924946089815, "lon": -63.50553377859276, "alt_km": 35778.314179107874, "timestamp": "2025-12-27T15:27:10.810823+00:00", "meta": {"OBJECT_NAME": "INTELSAT 904 (IS-904)", "OBJECT_ID": "2002-007A", "EPOCH": "2025-12-27T02:23:21.689376", "MEAN_MOTION": 1.00272196, "ECCENTRICITY": 0.00021295, "INCLINATION": 6.4885, "RA_OF_ASC_NODE": 71.2651, "ARG_OF_PERICENTER": 247.8595, "MEAN_ANOMALY": 141.0735, "EPHEMERIS_TYPE": 0, "CLASSIFICATION_TYPE": "U", "NORAD_CAT_ID": 27380, "ELEMENT_SET_NO": 999, "REV_AT_EPOCH": 5004, "BSTAR": 0, "MEAN_MOTION_DOT": -2.06e-06, "MEAN_MOTION_DDOT": 0}, "tle": {"line1": "1 27380U 02007A   25361.09955659 -.00000206  00000+0  00000+0 0  9991", "line2": "2 27380   6.4885  71.2651 0002129 247.8595 141.0735  1.00272196 50047"}}, "geometry": {"type": "Point", "coordinates": [-63.50553377859276, -4.634924946089815]}}, {"type": "Feature", "properties": {"norad_id": 27426, "name": "DIRECTV 5 (TEMPO 1)", "group": "intelsat", "lat": 2.8129803807049347, "lon": -141.90838588720564, "alt_km": 35779.977442373325, "timestamp": "2025-12-27T15:27:10.810837+00:00", "meta": {"OBJECT_NAME": "DIRECTV 5 (TEMPO 1)", "OBJECT_ID": "2002-023A", "EPOCH": "2025-12-27T05:37:47.675712", "MEAN_MOTION": 1.00271394, "ECCENTRICITY": 0.00034812, "INCLINATION": 4.4371, "RA_OF_ASC_NODE": 77.4808, "ARG_OF_PERICENTER": 207.2285, "MEAN_ANOMALY": 145.5877, "EPHEMERIS_TYPE": 0, "CLASSIFICATION_TYPE": "U", "NORAD_CAT_ID": 27426, "ELEMENT_SET_NO": 999, "REV_AT_EPOCH": 8639, "BSTAR": 0, "MEAN_MOTION_DOT": -3.6e-07, "MEAN_MOTION_DDOT": 0}, "tle": {"line1": "1 27426U 02023A   25361.23457958 -.00000036  00000+0  00000+0 0  9996", "line2": "2 27426   4.4371  77.4808 0003481 207.2285 145.5877  1.00271394 86398"}}, "geometry": {"type": "Point", "coordinates": [-141.90838588720564, 2.8129803807049347]}}, {"type": "Feature", "properties": {"norad_id": 27438, "name": "INTELSAT 905 (IS-905)", "group": "intelsat", "lat": 5.524359641678968, "lon": -168.8778746897774, "alt_km": 35783.99899663427, "timestamp": "2025-12-27T15:27:10.810849+00:00", "meta": {"OBJECT_NAME": "INTELSAT 905 (IS-905)", "OBJECT_ID": "2002-027A", "EPOCH": "2025-12-23T05:41:27.377952", "MEAN_MOTION": 1.00273243, "ECCENTRICITY": 0.00027491, "INCLINATION": 6.3102, "RA_OF_ASC_NODE": 71.9349, "ARG_OF_PERICENTER": 206.5226, "MEAN_ANOMALY": 121.7385, "EPHEMERIS_TYPE": 0, "CLASSIFICATION_TYPE": "U", "NORAD_CAT_ID": 27438, "ELEMENT_SET_NO": 999, "REV_AT_EPOCH": 4959, "BSTAR": 0, "MEAN_MOTION_DOT": 1.12e-06, "MEAN_MOTION_DDOT": 0}, "tle": {"line1": "1 27438U 02027A   25357.23712243  .00000112  00000+0  00000+0 0  9993", "line2": "2 27438   6.3102  71.9349 0002749 206.5226 121.7385  1.00273243 49592"}}, "geometry": {"type": "Point", "coordinates": [-168.8778746897774, 5.524359641678968]}}, {"type": "Feature", "properties": {"norad_id": 27445, "name": "GALAXY 3C (G-3C)", "group": "intelsat", "lat": 1.4868143723948064, "lon": -126.64567481295678, "alt_km": 35784.46220259551, "timestamp": "2025-12-27T15:27:10.810863+00:00", "meta": {"OBJECT_NAME": "GALAXY 3C (G-3C)", "OBJECT_ID": "2002-030A", "EPOCH": "2025-12-26T06:43:38.713152", "MEAN_MOTION": 1.00271267, "ECCENTRICITY": 9.7e-05, "INCLINATION": 3.2955, "RA_OF_ASC_NODE": 80.3601, "ARG_OF_PERICENTER": 86.5436, "MEAN_ANOMALY": 294.1805, "EPHEMERIS_TYPE": 0, "CLASSIFICATION_TYPE": "U", "NORAD_CAT_ID": 27445, "ELEMENT_SET_NO": 999, "REV_AT_EPOCH": 4476, "BSTAR": 0, "MEAN_MOTION_DOT": -1.32e-06, "MEAN_MOTION_DDOT": 0}, "tle": {"line1": "1 27445U 02030A   25360.28030918 -.00000132  00000+0  00000+0 0  9999", "line2": "2 27445   3.2955  80.3601 0000970  86.5436 294.1805  1.00271267 44760"}}, "geometry": {"type": "Point", "coordinates": [-126.64567481295678, 1.4868143723948064]}}, {"type": "Feature", "properties": {"norad_id": 27513, "name": "INTELSAT 906 (IS-906)", "group": "intelsat", "lat": -3.6334563440658716, "lon": 32.47860700543062, "alt_km": 35797.14918361154, "timestamp": "2025-12-27T15:27:10.810886+00:00", "meta": {"OBJECT_NAME": "INTELSAT 906 (IS-906)", "OBJECT_ID": "2002-041A", "EPOCH": "2025-12-27T04:44:52.745280", "MEAN_MOTION": 1.00271138, "ECCENTRICITY": 0.00061408, "INCLINATION": 5.3666, "RA_OF_ASC_NODE": 75.0601, "ARG_OF_PERICENTER": 203.6338, "MEAN_ANOMALY": 312.5849, "EPHEMERIS_TYPE": 0, "CLASSIFICATION_TYPE": "U", "NORAD_CAT_ID": 27513, "ELEMENT_SET_NO": 999, "REV_AT_EPOCH": 8530, "BSTAR": 0, "MEAN_MOTION_DOT": 3.3e-07, "MEAN_MOTION_DDOT": 0}, "tle": {"line1": "1 27513U 02041A   25361.19783270  .00000033  00000+0  00000+0 0  9993", "line2": "2 27513   5.3666  75.0601 0006140 203.6338 312.5849  1.00271138 85302"}}, "geometry": {"type": "Point", "coordinates": [32.47860700543062, -3.6334563440658716]}}, {"type": "Feature", "properties": {"norad_id": 27954, "name": "GALAXY 13 (HORIZONS-1)", "group": "intelsat", "lat": 0.9780929171232546, "lon": 178.1119028593495, "alt_km": 35786.7477273979, "timestamp": "2025-12-27T15:27:10.810914+00:00", "meta": {"OBJECT_NAME": "GALAXY 13 (HORIZONS-1)", "OBJECT_ID": "2003-044A", "EPOCH": "2025-12-27T05:26:26.263968", "MEAN_MOTION": 1.00272827, "ECCENTRICITY": 0.00022884, "INCLINATION": 0.9743, "RA_OF_ASC_NODE": 86.284, "ARG_OF_PERICENTER": 188.5611, "MEAN_ANOMALY": 112.7003, "EPHEMERIS_TYPE": 0, "CLASSIFICATION_TYPE": "U", "NORAD_CAT_ID": 27954, "ELEMENT_SET_NO": 999, "REV_AT_EPOCH": 4484, "BSTAR": 0, "MEAN_MOTION_DOT": 1.55e-06, "MEAN_MOTION_DDOT": 0}, "tle": {"line1": "1 27954U 03044A   25361.22669287  .00000155  00000+0  00000+0 0  9996", "line2": "2 27954   0.9743  86.2840 0002288 188.5611 112.7003  1.00272827 44843"}}, "geometry": {"type": "Point", "coordinates": [178.1119028593495, 0.9780929171232546]}}, {"type": "Feature", "properties": {"norad_id": 28358, "name": "INTELSAT 10-02", "group": "intelsat", "lat": -0.02817931042527447, "lon": -32.796600337229876, "alt_km": 35781.608164550526, "timestamp": "2025-12-27T15:27:10.810932+00:00", "meta": {"OBJECT_NAME": "INTELSAT 10-02", "OBJECT_ID": "2004-022A", "EPOCH": "2025-12-27T04:26:17.024928", "MEAN_MOTION": 1.00270123, "ECCENTRICITY": 0.00012817, "INCLINATION": 0.0163, "RA_OF_ASC_NODE": 51.3497, "ARG_OF_PERICENTER": 251.566, "MEAN_ANOMALY": 218.6151, "EPHEMERIS_TYPE": 0, "CLASSIFICATION_TYPE": "U", "NORAD_CAT_ID": 28358, "ELEMENT_SET_NO": 999, "REV_AT_EPOCH": 7883, "BSTAR": 0, "MEAN_MOTION_DOT": 1.1e-07, "MEAN_MOTION_DDOT": 0}, "tle": {"line1": "1 28358U 04022A   25361.18491927  .00000011  00000+0  00000+0 0  9992", "line2": "2 28358   0.0163  51.3497 0001281 251.5660 218.6151  1.00270123 78830"}}, "geometry": {"type": "Point", "coordinates": [-32.796600337229876, -0.02817931042527447]}}, {"type": "Feature", "properties": {"norad_id": 28626, "name": "XM-3 (RHYTHM)", "group": "intelsat", "lat": -0.1971704000906904, "lon": 11.599667307736292, "alt_km": 36151.26737488087, "timestamp": "2025-12-27T15:27:10.810946+00:00", "meta": {"OBJECT_NAME": "XM-3 (RHYTHM)", "OBJECT_ID": "2005-008A", "EPOCH": "2025-12-27T06:22:05.934144", "MEAN_MOTION": 0.98950711, "ECCENTRICITY": 0.00023042, "INCLINATION": 0.2102, "RA_OF_ASC_NODE": 82.3505, "ARG_OF_PERICENTER": 270.8272, "MEAN_ANOMALY": 243.5776, "EPHEMERIS_TYPE": 0, "CLASSIFICATION_TYPE": "U", "NORAD_CAT_ID": 28626, "ELEMENT_SET_NO": 999, "REV_AT_EPOCH": 4089, "BSTAR": 0, "MEAN_MOTION_DOT": 7.2e-07, "MEAN_MOTION_DDOT": 0}, "tle": {"line1": "1 28626U 05008A   25361.26534646  .00000072  00000+0  00000+0 0  9997", "line2": "2 28626   0.2102  82.3505 0002304 270.8272 243.5776  0.98950711 40896"}}, "geometry": {"type": "Point", "coordinates": [11.599667307736292, -0.1971704000906904]}}]}